QIANFAN-33              
1 61566U 24185Q   26026.82794389  .00000405  00000+0  28306-3 0  9990
2 61566  88.9757  73.7820 0007515 168.6353 191.4995 13.96591526 75453
QIANFAN-34              
1 61567U 24185R   26026.82249651  .00000541  00000+0  34376-3 0  9993
2 61567  88.9732  73.2862 0006299 164.7157 195.4215 14.02350375 75671
QIANFAN-35              
1 61568U 24185S   26026.82402390  .00000987  00000+0  39184-3 0  9991
2 61568  88.9759  71.5873 0008417 127.1789 233.0175 14.28056925 76613
QIANFAN-36              
1 61569U 24185T   26026.84097734  .00000231  00000+0  31493-3 0  9993
2 61569  88.9742  76.3480 0004042 268.4348  91.6342 13.55604310 74037
QIANFAN-37              
1 62238U 24232B   26026.80139664  .00000056  00000+0  67545-4 0  9998
2 62238  88.9995  36.7742 0001705  70.8544 289.2792 13.50983225105251
QIANFAN-38              
1 62239U 24232C   26026.82613535  .00000057  00000+0  69800-4 0  9992
2 62239  89.0003  36.6905 0016371  68.0879 292.2011 13.50981165105315
QIANFAN-39              
1 62240U 24232D   26026.77292387  .00000232  00000+0  92428-4 0  9993
2 62240  89.0000  32.1519 0014031 294.9276  65.0459 14.25416634107803
QIANFAN-40              
1 62241U 24232E   26026.78499104  .00000059  00000+0  72005-4 0  9997
2 62241  89.0030  36.2917 0015488  75.3924 284.8943 13.50981365105679
